[{"CCSDS_OMM_VERS":"2.0","COMMENT":"GENERATED VIA SPACE-TRACK.ORG API","CREATION_DATE":"2021-04-06T00:56:13","ORIGINATOR":"18 SPCS","OBJECT_NAME":"STARLINK-1024","OBJECT_ID":"2019-074S","CENTER_NAME":"EARTH","REF_FRAME":"TEME","TIME_SYSTEM":"UTC","MEAN_ELEMENT_THEORY":"SGP4","EPOCH":"2021-04-05T18:19:40.795968","MEAN_MOTION":"15.06656499","ECCENTRICITY":"0.00023970","INCLINATION":"53.0018","RA_OF_ASC_NODE":"1.6136","ARG_OF_PERICENTER":"49.6405","MEAN_ANOMALY":"310.4793","EPHEMERIS_TYPE":"0","CLASSIFICATION_TYPE":"U","NORAD_CAT_ID":"44729","ELEMENT_SET_NO":"999","REV_AT_EPOCH":"7750","BSTAR":"0.00015478000000","MEAN_MOTION_DOT":"0.00002040","MEAN_MOTION_DDOT":"0.0000000000000","SEMIMAJOR_AXIS":"6924.563","PERIOD":"95.576","APOAPSIS":"548.087","PERIAPSIS":"544.768","OBJECT_TYPE":"PAYLOAD","RCS_SIZE":"LARGE","COUNTRY_CODE":"US","LAUNCH_DATE":"2019-11-11","SITE":"AFETR","DECAY_DATE":null,"FILE":"3008137","GP_ID":"174939755","TLE_LINE0":"0 STARLINK-1024","TLE_LINE1":"1 44729U 19074S   21095.76366662  .00002040  00000-0  15478-3 0  9990","TLE_LINE2":"2 44729  53.0018   1.6136 0002397  49.6405 310.4793 15.06656499 77508"},{"CCSDS_OMM_VERS":"2.0","COMMENT":"GENERATED VIA SPACE-TRACK.ORG API","CREATION_DATE":"2021-04-06T17:59:24","ORIGINATOR":"18 SPCS","OBJECT_NAME":"STARLINK-1024","OBJECT_ID":"2019-074S","CENTER_NAME":"EARTH","REF_FRAME":"TEME","TIME_SYSTEM":"UTC","MEAN_ELEMENT_THEORY":"SGP4","EPOCH":"2021-04-06T03:52:48.835776","MEAN_MOTION":"15.06659968","ECCENTRICITY":"0.00024430","INCLINATION":"53.0019","RA_OF_ASC_NODE":"359.8240","ARG_OF_PERICENTER":"50.8332","MEAN_ANOMALY":"309.2873","EPHEMERIS_TYPE":"0","CLASSIFICATION_TYPE":"U","NORAD_CAT_ID":"44729","ELEMENT_SET_NO":"999","REV_AT_EPOCH":"7739","BSTAR":"0.00017256000000","MEAN_MOTION_DOT":"0.00002307","MEAN_MOTION_DDOT":"0.0000000000000","SEMIMAJOR_AXIS":"6924.552","PERIOD":"95.576","APOAPSIS":"548.109","PERIAPSIS":"544.725","OBJECT_TYPE":"PAYLOAD","RCS_SIZE":"LARGE","COUNTRY_CODE":"US","LAUNCH_DATE":"2019-11-11","SITE":"AFETR","DECAY_DATE":null,"FILE":"3009143","GP_ID":"175004389","TLE_LINE0":"0 STARLINK-1024","TLE_LINE1":"1 44729U 19074S   21096.16167634  .00002307  00000-0  17256-3 0  9995","TLE_LINE2":"2 44729  53.0019 359.8240 0002443  50.8332 309.2873 15.06659968 77394"},{"CCSDS_OMM_VERS":"2.0","COMMENT":"GENERATED VIA SPACE-TRACK.ORG API","CREATION_DATE":"2021-04-07T02:50:05","ORIGINATOR":"18 SPCS","OBJECT_NAME":"STARLINK-1024","OBJECT_ID":"2019-074S","CENTER_NAME":"EARTH","REF_FRAME":"TEME","TIME_SYSTEM":"UTC","MEAN_ELEMENT_THEORY":"SGP4","EPOCH":"2021-04-06T19:48:02.282688","MEAN_MOTION":"15.06661924","ECCENTRICITY":"0.00024870","INCLINATION":"53.0019","RA_OF_ASC_NODE":"356.8412","ARG_OF_PERICENTER":"52.3363","MEAN_ANOMALY":"307.7851","EPHEMERIS_TYPE":"0","CLASSIFICATION_TYPE":"U","NORAD_CAT_ID":"44729","ELEMENT_SET_NO":"999","REV_AT_EPOCH":"7749","BSTAR":"0.00012766000000","MEAN_MOTION_DOT":"0.00001633","MEAN_MOTION_DDOT":"0.0000000000000","SEMIMAJOR_AXIS":"6924.546","PERIOD":"95.576","APOAPSIS":"548.133","PERIAPSIS":"544.689","OBJECT_TYPE":"PAYLOAD","RCS_SIZE":"LARGE","COUNTRY_CODE":"US","LAUNCH_DATE":"2019-11-11","SITE":"AFETR","DECAY_DATE":null,"FILE":"3009448","GP_ID":"175034245","TLE_LINE0":"0 STARLINK-1024","TLE_LINE1":"1 44729U 19074S   21096.82502642  .00001633  00000-0  12766-3 0  9992","TLE_LINE2":"2 44729  53.0019 356.8412 0002487  52.3363 307.7851 15.06661924 77496"},{"CCSDS_OMM_VERS":"2.0","COMMENT":"GENERATED VIA SPACE-TRACK.ORG API","CREATION_DATE":"2021-04-07T06:56:11","ORIGINATOR":"18 SPCS","OBJECT_NAME":"STARLINK-1024","OBJECT_ID":"2019-074S","CENTER_NAME":"EARTH","REF_FRAME":"TEME","TIME_SYSTEM":"UTC","MEAN_ELEMENT_THEORY":"SGP4","EPOCH":"2021-04-06T22:59:04.910208","MEAN_MOTION":"15.06663522","ECCENTRICITY":"0.00024990","INCLINATION":"53.0019","RA_OF_ASC_NODE":"356.2447","ARG_OF_PERICENTER":"52.5060","MEAN_ANOMALY":"307.6155","EPHEMERIS_TYPE":"0","CLASSIFICATION_TYPE":"U","NORAD_CAT_ID":"44729","ELEMENT_SET_NO":"999","REV_AT_EPOCH":"7768","BSTAR":"0.00014323000000","MEAN_MOTION_DOT":"0.00001867","MEAN_MOTION_DDOT":"0.0000000000000","SEMIMAJOR_AXIS":"6924.541","PERIOD":"95.575","APOAPSIS":"548.136","PERIAPSIS":"544.676","OBJECT_TYPE":"PAYLOAD","RCS_SIZE":"LARGE","COUNTRY_CODE":"US","LAUNCH_DATE":"2019-11-11","SITE":"AFETR","DECAY_DATE":null,"FILE":"3009662","GP_ID":"175042157","TLE_LINE0":"0 STARLINK-1024","TLE_LINE1":"1 44729U 19074S   21096.95769572  .00001867  00000-0  14323-3 0  9993","TLE_LINE2":"2 44729  53.0019 356.2447 0002499  52.5060 307.6155 15.06663522 77680"},{"CCSDS_OMM_VERS":"2.0","COMMENT":"GENERATED VIA SPACE-TRACK.ORG API","CREATION_DATE":"2021-04-07T17:49:22","ORIGINATOR":"18 SPCS","OBJECT_NAME":"STARLINK-1024","OBJECT_ID":"2019-074S","CENTER_NAME":"EARTH","REF_FRAME":"TEME","TIME_SYSTEM":"UTC","MEAN_ELEMENT_THEORY":"SGP4","EPOCH":"2021-04-07T03:45:38.886048","MEAN_MOTION":"15.06664895","ECCENTRICITY":"0.00025150","INCLINATION":"53.0019","RA_OF_ASC_NODE":"355.3500","ARG_OF_PERICENTER":"53.1999","MEAN_ANOMALY":"306.9220","EPHEMERIS_TYPE":"0","CLASSIFICATION_TYPE":"U","NORAD_CAT_ID":"44729","ELEMENT_SET_NO":"999","REV_AT_EPOCH":"7754","BSTAR":"0.00014987000000","MEAN_MOTION_DOT":"0.00001966","MEAN_MOTION_DDOT":"0.0000000000000","SEMIMAJOR_AXIS":"6924.537","PERIOD":"95.575","APOAPSIS":"548.143","PERIAPSIS":"544.660","OBJECT_TYPE":"PAYLOAD","RCS_SIZE":"LARGE","COUNTRY_CODE":"US","LAUNCH_DATE":"2019-11-11","SITE":"AFETR","DECAY_DATE":null,"FILE":"3010539","GP_ID":"175079995","TLE_LINE0":"0 STARLINK-1024","TLE_LINE1":"1 44729U 19074S   21097.15670007  .00001966  00000-0  14987-3 0  9996","TLE_LINE2":"2 44729  53.0019 355.3500 0002515  53.1999 306.9220 15.06664895 77541"},{"CCSDS_OMM_VERS":"2.0","COMMENT":"GENERATED VIA SPACE-TRACK.ORG API","CREATION_DATE":"2021-04-08T02:29:46","ORIGINATOR":"18 SPCS","OBJECT_NAME":"STARLINK-1024","OBJECT_ID":"2019-074S","CENTER_NAME":"EARTH","REF_FRAME":"TEME","TIME_SYSTEM":"UTC","MEAN_ELEMENT_THEORY":"SGP4","EPOCH":"2021-04-07T21:16:23.422080","MEAN_MOTION":"15.06669618","ECCENTRICITY":"0.00025550","INCLINATION":"53.0020","RA_OF_ASC_NODE":"352.0688","ARG_OF_PERICENTER":"54.9788","MEAN_ANOMALY":"305.1440","EPHEMERIS_TYPE":"0","CLASSIFICATION_TYPE":"U","NORAD_CAT_ID":"44729","ELEMENT_SET_NO":"999","REV_AT_EPOCH":"7765","BSTAR":"0.00018108000000","MEAN_MOTION_DOT":"0.00002435","MEAN_MOTION_DDOT":"0.0000000000000","SEMIMAJOR_AXIS":"6924.522","PERIOD":"95.575","APOAPSIS":"548.157","PERIAPSIS":"544.618","OBJECT_TYPE":"PAYLOAD","RCS_SIZE":"LARGE","COUNTRY_CODE":"US","LAUNCH_DATE":"2019-11-11","SITE":"AFETR","DECAY_DATE":null,"FILE":"3010760","GP_ID":"175107126","TLE_LINE0":"0 STARLINK-1024","TLE_LINE1":"1 44729U 19074S   21097.88638220  .00002435  00000-0  18108-3 0  9998","TLE_LINE2":"2 44729  53.0020 352.0688 0002555  54.9788 305.1440 15.06669618 77658"},{"CCSDS_OMM_VERS":"2.0","COMMENT":"GENERATED VIA SPACE-TRACK.ORG API","CREATION_DATE":"2021-04-08T06:36:12","ORIGINATOR":"18 SPCS","OBJECT_NAME":"STARLINK-1024","OBJECT_ID":"2019-074S","CENTER_NAME":"EARTH","REF_FRAME":"TEME","TIME_SYSTEM":"UTC","MEAN_ELEMENT_THEORY":"SGP4","EPOCH":"2021-04-08T02:02:57.341760","MEAN_MOTION":"15.06671316","ECCENTRICITY":"0.00025680","INCLINATION":"53.0019","RA_OF_ASC_NODE":"351.1741","ARG_OF_PERICENTER":"55.3383","MEAN_ANOMALY":"304.7847","EPHEMERIS_TYPE":"0","CLASSIFICATION_TYPE":"U","NORAD_CAT_ID":"44729","ELEMENT_SET_NO":"999","REV_AT_EPOCH":"7785","BSTAR":"0.00019646000000","MEAN_MOTION_DOT":"0.00002666","MEAN_MOTION_DDOT":"0.0000000000000","SEMIMAJOR_AXIS":"6924.517","PERIOD":"95.575","APOAPSIS":"548.160","PERIAPSIS":"544.604","OBJECT_TYPE":"PAYLOAD","RCS_SIZE":"LARGE","COUNTRY_CODE":"US","LAUNCH_DATE":"2019-11-11","SITE":"AFETR","DECAY_DATE":null,"FILE":"3010952","GP_ID":"175115256","TLE_LINE0":"0 STARLINK-1024","TLE_LINE1":"1 44729U 19074S   21098.08538590  .00002666  00000-0  19646-3 0  9994","TLE_LINE2":"2 44729  53.0019 351.1741 0002568  55.3383 304.7847 15.06671316 77852"},{"CCSDS_OMM_VERS":"2.0","COMMENT":"GENERATED VIA SPACE-TRACK.ORG API","CREATION_DATE":"2021-04-08T19:46:40","ORIGINATOR":"18 SPCS","OBJECT_NAME":"STARLINK-1024","OBJECT_ID":"2019-074S","CENTER_NAME":"EARTH","REF_FRAME":"TEME","TIME_SYSTEM":"UTC","MEAN_ELEMENT_THEORY":"SGP4","EPOCH":"2021-04-08T05:13:59.933856","MEAN_MOTION":"15.06673286","ECCENTRICITY":"0.00025740","INCLINATION":"53.0019","RA_OF_ASC_NODE":"350.5775","ARG_OF_PERICENTER":"55.9386","MEAN_ANOMALY":"304.1847","EPHEMERIS_TYPE":"0","CLASSIFICATION_TYPE":"U","NORAD_CAT_ID":"44729","ELEMENT_SET_NO":"999","REV_AT_EPOCH":"7770","BSTAR":"0.00022173000000","MEAN_MOTION_DOT":"0.00003046","MEAN_MOTION_DDOT":"0.0000000000000","SEMIMAJOR_AXIS":"6924.511","PERIOD":"95.575","APOAPSIS":"548.158","PERIAPSIS":"544.594","OBJECT_TYPE":"PAYLOAD","RCS_SIZE":"LARGE","COUNTRY_CODE":"US","LAUNCH_DATE":"2019-11-11","SITE":"AFETR","DECAY_DATE":null,"FILE":"3011702","GP_ID":"175150430","TLE_LINE0":"0 STARLINK-1024","TLE_LINE1":"1 44729U 19074S   21098.21805479  .00003046  00000-0  22173-3 0  9994","TLE_LINE2":"2 44729  53.0019 350.5775 0002574  55.9386 304.1847 15.06673286 77704"}]